QIANFAN-17              
1 60395U 24140S   25230.89645058  .00000092  00000+0  12346-3 0  9990
2 60395  88.9845 311.4047 0015655 172.8459 187.2918 13.50964742 52492
QIANFAN-18              
1 60396U 24140T   25230.87597791  .00000108  00000+0  14844-3 0  9992
2 60396  88.9837 310.9494 0015572 156.4592 203.7275 13.50966579 51880
QIANFAN-19              
1 61552U 24185A   25230.89899019  .00000359  00000+0  18147-3 0  9994
2 61552  88.9781  91.2342 0006076 335.4121  24.6775 14.14127139 53294
QIANFAN-20              
1 61553U 24185B   25230.90986372  .00000421  00000+0  23658-3 0  9999
2 61553  88.9780  91.4400 0006533  13.1943 346.9411 14.08678617 53181
QIANFAN-21              
1 61554U 24185C   25230.89352128  .00000513  00000+0  22414-3 0  9995
2 61554  88.9695  90.5672 0011980  30.1099 330.0778 14.22379586 53506
QIANFAN-22              
1 61555U 24185D   25230.86812468  .00000140  00000+0  10947-3 0  9995
2 61555  88.9766  91.9595 0007001   6.7739 353.3525 13.86242820 52881
QIANFAN-23              
1 61556U 24185E   25230.89570717  .00000443  00000+0  21722-3 0  9996
2 61556  88.9774  91.0979 0007358 346.8236  13.2759 14.16100566 53351
QIANFAN-24              
1 61557U 24185F   25230.85349841  .00000484  00000+0  20639-3 0  9996
2 61557  88.9754  90.6975 0008448 329.7798  30.2906 14.23579550 53539
